{"type": "FeatureCollection", "features": [{"type": "Feature", "properties": {"name": "1", "styleUrl": "#m_ylw-pushpin"}, "geometry": {"type": "Point", "coordinates": [-70.57008984107517, -33.45262359446, 0.0]}}, {"type": "Feature", "properties": {"name": "2", "styleUrl": "#m_ylw-pushpin"}, "geometry": {"type": "Point", "coordinates": [-70.54065508928143, -33.42831844215605, 0.0]}}, {"type": "Feature", "properties": {"name": "3", "styleUrl": "#m_ylw-pushpin"}, "geometry": {"type": "Point", "coordinates": [-70.54581606219176, -33.39059303703885, 0.0]}}, {"type": "Feature", "properties": {"name": "4", "styleUrl": "#m_ylw-pushpin"}, "geometry": {"type": "Point", "coordinates": [-70.54637897769351, -33.39081148532679, 0.0]}}, {"type": "Feature", "properties": {"name": "5", "styleUrl": "#m_ylw-pushpin"}, "geometry": {"type": "Point", "coordinates": [-70.57271876570734, -33.40394496335515, 0.0]}}, {"type": "Feature", "properties": {"name": "6", "styleUrl": "#m_ylw-pushpin"}, "geometry": {"type": "Point", "coordinates": [-70.57817712874929, -33.40194569731717, 0.0]}}, {"type": "Feature", "properties": {"name": "7", "styleUrl": "#m_ylw-pushpin"}, "geometry": {"type": "Point", "coordinates": [-70.57537486567207, -33.4015754850251, 0.0]}}, {"type": "Feature", "properties": {"name": "8", "styleUrl": "#m_ylw-pushpin"}, "geometry": {"type": "Point", "coordinates": [-70.5976400314732, -33.41670317719817, 0.0]}}, {"type": "Feature", "properties": {"name": "9", "styleUrl": "#m_ylw-pushpin"}, "geometry": {"type": "Point", "coordinates": [-70.60114946326848, -33.41572902833597, 0.0]}}, {"type": "Feature", "properties": {"name": "10", "styleUrl": "#m_ylw-pushpin"}, "geometry": {"type": "Point", "coordinates": [-70.6021292990907, -33.41462515163481, 0.0]}}, {"type": "Feature", "properties": {"name": "11", "styleUrl": "#m_ylw-pushpin"}, "geometry": {"type": "Point", "coordinates": [-70.60219990747517, -33.41378553036667, 0.0]}}, {"type": "Feature", "properties": {"name": "12", "styleUrl": "#m_ylw-pushpin"}, "geometry": {"type": "Point", "coordinates": [-70.60649942880544, -33.41718395170179, 0.0]}}, {"type": "Feature", "properties": {"name": "13", "styleUrl": "#m_ylw-pushpin"}, "geometry": {"type": "Point", "coordinates": [-70.60754453275207, -33.41787384256444, 0.0]}}, {"type": "Feature", "properties": {"name": "14", "styleUrl": "#m_ylw-pushpin"}, "geometry": {"type": "Point", "coordinates": [-70.60866375051478, -33.41849963445038, 0.0]}}], "name": "/tmp/outputs/"}